STARLINK-1733
1 46564U 20070AJ  26061.16668981  .00080710  00000+0  60756-3 0  9996
2 46564  53.0434 144.7494 0001280 268.1022 257.1764 15.71855025  5984
STARLINK-1816
1 46714U 20073AW  26061.00002315  .00088102  00000+0  67993-3 0  9995
2 46714  53.0421 236.8713 0004586 133.9188 165.4919 15.71216783  5792
STARLINK-1790
1 46691U 20073X   26061.16668981  .00040503  00000+0  32330-3 0  9993
2 46691  53.0430 235.8630 0006602 139.2489  22.8663 15.70723009  5938
STARLINK-1746
1 46588U 20070BJ  26061.16668981  .00067243  00000+0  54003-3 0  9996
2 46588  53.0426 152.2833 0002192 131.1378 149.5311 15.70382427  5979
STARLINK-1669
1 47624U 21012E   26061.16668981  .00307084  00000+0  23875-2 0  9997
2 47624  53.0365  29.2683 0008194  50.5804  87.1595 15.70270594  5821
